#dP2024 11  2  6  0  0.00000000      96 __u+U IGS20 EXT  IAC
## 2338 540000.00000000   900.00000000 60616 0.2500000000000
+   52   G02G03G04G05G06G07G08G09G10G11G12G13G14G15G16G17G18
+        G19G20G21G22G23G24G25G26G27G28G29G30G31G32R01R02R03
+        R04R05R07R08R09R11R12R14R15R16R17R18R19R20R21R22R24
+        R26  0  0  0  0  0  0  0  0  0  0  0  0  0  0  0  0
+          0  0  0  0  0  0  0  0  0  0  0  0  0  0  0  0  0
++         7  7  8  7  8  7  7  7  8  7  8  8  8  9  7  7  8
++         7  8  7  9  8  7  7  9  6  8  8  8  8  7  8  8  9
++         8  8  7  8  9  9  8  7  9  8  8  8  8  9  7  7  7
++         8  0  0  0  0  0  0  0  0  0  0  0  0  0  0  0  0
++         0  0  0  0  0  0  0  0  0  0  0  0  0  0  0  0  0
%c M  cc GPS ccc cccc cccc cccc cccc ccccc ccccc ccccc ccccc
%c cc cc ccc ccc cccc cccc cccc cccc ccccc ccccc ccccc ccccc
%f  0.0000000  0.000000000  0.00000000000  0.000000000000000
%f  0.0000000  0.000000000  0.00000000000  0.000000000000000
%i    0    0    0    0      0      0      0      0         0
%i    0    0    0    0      0      0      0      0         0
/* IAC                                ULTRA-RAPID PREDICTION
/* S/V CLOCKS ARE ALIGNED TO GNSS TIME                      
/* G:C1WC2W R:C1PC2P E:C1XC5X C:C2IC6I J:C1CC2S             
/* PCV:IGS20_2317 OL/AL:FES2004  NONE     YN ORB:CoN CLK:CoN
*  2024 11 02  8 30  0.00000000
PG02  11795.054071  13231.120098 -19419.809219   -323.717011
PG03  12755.711723  23249.428766   2147.750793    588.398057
PG04   6052.581728  15764.545108  20477.169341    472.424846
PG05  -3023.487136 -23127.709923  12466.142948   -191.724679
PG06  23067.373618  -5877.510883  11969.979873    -83.549139
PG07  24548.169768   7563.239801   8151.291757    -22.840004
PG08  -2784.830673  22608.998065 -13397.366088    402.203142
PG09  13904.197180   6383.754466  21618.893402    425.448084
PG10 -14665.995523   2753.069023 -21783.875167   -180.519436
PG11  10822.382574 -12993.654007  20500.540495   -748.009893
PG12  -8860.620999 -25023.223514  -1704.802931   -549.324189
PG13  12193.709749 -21992.530397  -8397.510116    684.258935
PG14  16847.761778   1168.868249 -20503.455944    530.945613
PG15   -623.484959 -22866.579578 -13891.127497    222.919410
PG16  -3420.993120  20938.876961  15346.228297   -138.987962
PG17  19896.206423  -9443.563817 -14560.185850    573.950511
PG18 -25279.584648  -6243.680491   5848.242905   -659.660521
PG19  19734.100693 -16060.736307  -6945.491067    557.897034
PG20   5294.953309 -16716.429255  20066.910685    369.107203
PG21   5699.875020  14648.270073 -21146.235489     98.412093
PG22  13046.143974  -7790.440386 -21404.658592    -76.175590
PG23 -17985.894661 -11252.092231 -16087.152078    354.631834
PG24  -9466.192470 -14847.078079 -20444.920652   -482.366451
PG25 -16959.645745 -18048.213351   9599.932121    499.260664
PG26 -10953.292931  11919.554235  20839.825014     40.109499
PG27 -11809.775259  23204.448429  -4196.380527    -34.740240
PG28 -24049.664458   5809.353225   9652.835907   -465.974188
PG29 -12355.804187  -8581.355815  21851.325034   -566.866427
PG30  26540.564830   -267.955713  -2820.794702   -290.256997
PG31 -16188.865714  11159.035822  17784.105927   -222.446015
PG32 -19175.436435  12284.166315 -13279.325141   -579.213179
PR01  -5026.427501  25009.143890    283.352635    103.067924
PR02   2978.494165  19387.561981  16301.750413    -25.475369
PR03  10441.870932   2858.444435  23137.211524    110.574735
PR04  11849.057451 -14569.679754  17298.244228    262.089006
PR05   7199.803944 -24388.877306   2215.428986    140.071475
PR07 -10499.220521  -2483.465429 -23078.535886     94.150784
PR08 -11727.584936  14868.771973 -17011.241386     -6.336333
PR09 -15824.639010 -18627.080684  -7133.021566    218.189587
PR11 -14420.610978    273.123515  21043.259388      7.804415
PR12   1418.824770  14883.610246  20685.759395     46.750475
PR14  20214.137906  11983.697989  -9936.772796     27.155567
PR15  13387.223499  -1723.462261 -21628.566408     74.494495
PR16  -1398.521564 -14667.553244 -20804.875505     30.443623
PR17  22432.422475   -778.986384 -12056.201070    136.209473
PR18  23709.565841  -8534.541716   4120.620659    169.870964
PR19  14966.906793 -11557.199771  17120.481179   -297.016573
PR20  -7325.156268  -8742.208024  22827.599265   -121.345745
PR21 -22032.912137    119.078713  12890.139841   -147.877669
PR22 -23461.590565   8517.473878  -5215.528141      2.619206
PR24   8396.523501   8617.510023 -22464.473343    -78.475901
PR26 -11829.623298  13425.792809 -18169.624918   -493.124338
*  2024 11 02  8 45  0.00000000
PG02   9433.270107  13426.914101 -20488.928291   -323.709422
PG03  12648.297944  23415.559236   -751.600324    588.407950
PG04   4688.256661  17589.457550  19301.510955    472.430802
PG05  -2063.052739 -21856.980879  14724.143339   -191.725808
PG06  24265.372444  -5669.630507   9424.541821    -83.574833
PG07  23541.160918   7740.613891  10684.279484    -22.837598
PG08  -3709.661729  23690.386751 -11041.257257    402.212878
PG09  12631.929841   8531.990074  21652.659490    425.463216
PG10 -15801.884325    532.399636 -21184.218172   -180.532018
PG11  13077.992941 -12703.125493  19326.768068   -748.011830
PG12  -8505.075532 -24825.304088  -4530.939455   -549.326566
PG13  12870.728853 -22442.071226  -5658.553649    684.260484
PG14  17787.619612   3266.166625 -19479.602285    530.953088
PG15    161.640546 -24049.627637 -11623.175644    222.923453
PG16  -4360.514674  19231.311434  17228.501881   -138.979098
PG17  18961.946086  -7848.290064 -16544.117851    573.938009
PG18 -24455.621111  -6385.386148   8558.853238   -659.661232
PG19  19352.403904 -15165.233301  -9618.242519    557.901137
PG20   6798.383920 -14932.303166  20989.856833    369.106889
PG21   3187.940311  14780.786466 -21475.916023     98.411321
PG22  14024.775270  -5446.986775 -21481.380410    -76.178387
PG23 -18713.928235 -12808.922402 -13977.408450    354.639077
PG24  -7183.763197 -15056.007872 -21188.221061   -482.364869
PG25 -17218.002206 -19033.945716   6999.345007    499.260490
PG26 -12326.581191   9886.180185  21166.517684     40.098170
PG27 -12206.522135  23299.226495  -1341.077306    -34.740238
PG28 -25003.574422   5569.028369   7014.647842   -465.985200
PG29 -10859.917267 -10586.715927  21755.509003   -566.863882
PG30  26708.223553     44.164786    -38.167532   -290.250111
PG31 -18142.080337  10886.214804  16037.671151   -222.445469
PG32 -18470.119916  10741.823455 -15427.195385   -579.208731
PR01  -4851.239581  24874.578607  -2924.195228    103.069020
PR02   2715.435768  21230.939350  13856.291430    -25.475573
PR03   9890.821404   5633.593799  22862.397233    110.575271
PR04  11266.334431 -12390.908375  19273.301651    262.090558
PR05   6922.170210 -23969.237982   5397.752413    140.071956
PR07  -9942.856391  -5272.707270 -22860.430925     94.151365
PR08 -11181.867741  12697.402579 -19017.055684     -6.336301
PR09 -15052.004240 -17887.503630 -10087.219674    218.191341
PR11 -16358.961827  -1310.484598  19530.209976      7.803527
PR12   -522.203414  13120.893111  21888.376087     46.750813
PR14  21078.353988  12578.942531  -6965.868672     27.155581
PR15  15373.150474    -55.942150 -20339.976316     74.494210
PR16    561.543898 -12892.802755 -21988.592306     30.443866
PR17  20812.089949   -404.661943 -14693.037259    136.212472
PR18  23941.788465  -8820.744084    905.079366    169.872593
PR19  16821.176739 -12239.133241  14760.783097   -297.017635
PR20  -4577.375128  -9476.045420  23250.127376   -121.346312
PR21 -20318.743294   -258.802941  15448.433445   -147.880555
PR22 -23856.081389   8780.716138  -2044.191521      2.608625
PR24   5722.089657   9476.810386 -22954.931417    -78.477375
PR26 -11279.759498  11131.272729 -19977.022719   -493.088125
EOF
